[{"OBJECT_NAME":"STARLINK-34565","OBJECT_ID":"2025-139Y","EPOCH":"2026-03-19T07:09:48.050784","MEAN_MOTION":15.30200115,"ECCENTRICITY":0.0001159,"INCLINATION":53.1575,"RA_OF_ASC_NODE":82.5109,"ARG_OF_PERICENTER":67.2287,"MEAN_ANOMALY":292.8836,"EPHEMERIS_TYPE":0,"CLASSIFICATION_TYPE":"U","NORAD_CAT_ID":64686,"ELEMENT_SET_NO":999,"REV_AT_EPOCH":4175,"BSTAR":0.00052698505,"MEAN_MOTION_DOT":0.00015281,"MEAN_MOTION_DDOT":0},{"OBJECT_NAME":"STARLINK-34554","OBJECT_ID":"2025-139Z","EPOCH":"2026-03-19T06:36:22.208256","MEAN_MOTION":15.30202722,"ECCENTRICITY":0.00014561,"INCLINATION":53.1621,"RA_OF_ASC_NODE":82.3718,"ARG_OF_PERICENTER":88.3761,"MEAN_ANOMALY":271.7407,"EPHEMERIS_TYPE":0,"CLASSIFICATION_TYPE":"U","NORAD_CAT_ID":64687,"ELEMENT_SET_NO":999,"REV_AT_EPOCH":4175,"BSTAR":0.00043226947,"MEAN_MOTION_DOT":0.00012466,"MEAN_MOTION_DDOT":0},{"OBJECT_NAME":"STARLINK-34262","OBJECT_ID":"2025-139AA","EPOCH":"2026-03-19T06:50:02.633280","MEAN_MOTION":15.30204067,"ECCENTRICITY":0.000104,"INCLINATION":53.1586,"RA_OF_ASC_NODE":82.428,"ARG_OF_PERICENTER":106.0273,"MEAN_ANOMALY":254.0842,"EPHEMERIS_TYPE":0,"CLASSIFICATION_TYPE":"U","NORAD_CAT_ID":64688,"ELEMENT_SET_NO":999,"REV_AT_EPOCH":4181,"BSTAR":0.00059444375,"MEAN_MOTION_DOT":0.0001729,"MEAN_MOTION_DDOT":0},{"OBJECT_NAME":"STARLINK-34538","OBJECT_ID":"2025-139AB","EPOCH":"2026-03-19T07:00:40.778496","MEAN_MOTION":15.30202428,"ECCENTRICITY":0.00010869,"INCLINATION":53.1577,"RA_OF_ASC_NODE":82.4747,"ARG_OF_PERICENTER":87.7851,"MEAN_ANOMALY":272.3274,"EPHEMERIS_TYPE":0,"CLASSIFICATION_TYPE":"U","NORAD_CAT_ID":64689,"ELEMENT_SET_NO":999,"REV_AT_EPOCH":4175,"BSTAR":9.8021142e-5,"MEAN_MOTION_DOT":2.545e-5,"MEAN_MOTION_DDOT":0},{"OBJECT_NAME":"STARLINK-34250","OBJECT_ID":"2025-139AC","EPOCH":"2026-03-19T07:05:14.313120","MEAN_MOTION":15.30187986,"ECCENTRICITY":0.00015284,"INCLINATION":53.1573,"RA_OF_ASC_NODE":82.4926,"ARG_OF_PERICENTER":78.6709,"MEAN_ANOMALY":281.4463,"EPHEMERIS_TYPE":0,"CLASSIFICATION_TYPE":"U","NORAD_CAT_ID":64690,"ELEMENT_SET_NO":999,"REV_AT_EPOCH":4175,"BSTAR":0.00056973178,"MEAN_MOTION_DOT":0.00016546,"MEAN_MOTION_DDOT":0},{"OBJECT_NAME":"STARLINK-34497","OBJECT_ID":"2025-142A","EPOCH":"2026-03-19T20:23:03.287040","MEAN_MOTION":14.983323,"ECCENTRICITY":0.0001808,"INCLINATION":70.0009,"RA_OF_ASC_NODE":288.8011,"ARG_OF_PERICENTER":265.0124,"MEAN_ANOMALY":95.0829,"EPHEMERIS_TYPE":0,"CLASSIFICATION_TYPE":"U","NORAD_CAT_ID":64696,"ELEMENT_SET_NO":999,"REV_AT_EPOCH":4116,"BSTAR":-1.4813e-5,"MEAN_MOTION_DOT":-2.7e-6,"MEAN_MOTION_DDOT":0},{"OBJECT_NAME":"STARLINK-34584","OBJECT_ID":"2025-142B","EPOCH":"2026-03-19T20:00:01.999008","MEAN_MOTION":14.98333946,"ECCENTRICITY":0.0002287,"INCLINATION":69.9992,"RA_OF_ASC_NODE":288.7358,"ARG_OF_PERICENTER":272.9573,"MEAN_ANOMALY":91.8081,"EPHEMERIS_TYPE":0,"CLASSIFICATION_TYPE":"U","NORAD_CAT_ID":64697,"ELEMENT_SET_NO":999,"REV_AT_EPOCH":580,"BSTAR":-0.00070017,"MEAN_MOTION_DOT":-8.438e-5,"MEAN_MOTION_DDOT":0},{"OBJECT_NAME":"STARLINK-34535","OBJECT_ID":"2025-142C","EPOCH":"2026-03-19T19:28:46.140960","MEAN_MOTION":14.98343116,"ECCENTRICITY":0.0002972,"INCLINATION":69.9998,"RA_OF_ASC_NODE":289.0414,"ARG_OF_PERICENTER":268.221,"MEAN_ANOMALY":91.8609,"EPHEMERIS_TYPE":0,"CLASSIFICATION_TYPE":"U","NORAD_CAT_ID":64698,"ELEMENT_SET_NO":999,"REV_AT_EPOCH":4098,"BSTAR":0.00035886,"MEAN_MOTION_DOT":4.193e-5,"MEAN_MOTION_DDOT":0},{"OBJECT_NAME":"STARLINK-34600","OBJECT_ID":"2025-142D","EPOCH":"2026-03-19T20:58:54.653952","MEAN_MOTION":14.98329587,"ECCENTRICITY":0.0002511,"INCLINATION":69.9999,"RA_OF_ASC_NODE":288.8512,"ARG_OF_PERICENTER":266.4862,"MEAN_ANOMALY":93.601,"EPHEMERIS_TYPE":0,"CLASSIFICATION_TYPE":"U","NORAD_CAT_ID":64699,"ELEMENT_SET_NO":999,"REV_AT_EPOCH":4100,"BSTAR":0.00038973,"MEAN_MOTION_DOT":4.56e-5,"MEAN_MOTION_DDOT":0},{"OBJECT_NAME":"STARLINK-34560","OBJECT_ID":"2025-142E","EPOCH":"2026-03-19T19:40:47.479008","MEAN_MOTION":14.98343011,"ECCENTRICITY":0.0002971,"INCLINATION":69.9993,"RA_OF_ASC_NODE":289.0665,"ARG_OF_PERICENTER":270.9295,"MEAN_ANOMALY":89.1523,"EPHEMERIS_TYPE":0,"CLASSIFICATION_TYPE":"U","NORAD_CAT_ID":64700,"ELEMENT_SET_NO":999,"REV_AT_EPOCH":4095,"BSTAR":0.00037784,"MEAN_MOTION_DOT":4.42e-5,"MEAN_MOTION_DDOT":0},{"OBJECT_NAME":"STARLINK-34576","OBJECT_ID":"2025-142F","EPOCH":"2026-03-19T20:05:01.776768","MEAN_MOTION":14.98338601,"ECCENTRICITY":0.0002623,"INCLINATION":69.9992,"RA_OF_ASC_NODE":288.723,"ARG_OF_PERICENTER":269.7049,"MEAN_ANOMALY":90.381,"EPHEMERIS_TYPE":0,"CLASSIFICATION_TYPE":"U","NORAD_CAT_ID":64701,"ELEMENT_SET_NO":999,"REV_AT_EPOCH":4099,"BSTAR":0.00034904,"MEAN_MOTION_DOT":4.075e-5,"MEAN_MOTION_DDOT":0},{"OBJECT_NAME":"STARLINK-34322","OBJECT_ID":"2025-142G","EPOCH":"2026-03-19T20:11:02.698944","MEAN_MOTION":14.98336107,"ECCENTRICITY":0.0002433,"INCLINATION":70.0003,"RA_OF_ASC_NODE":288.7358,"ARG_OF_PERICENTER":268.9928,"MEAN_ANOMALY":91.0952,"EPHEMERIS_TYPE":0,"CLASSIFICATION_TYPE":"U","NORAD_CAT_ID":64702,"ELEMENT_SET_NO":999,"REV_AT_EPOCH":4116,"BSTAR":0.00027142,"MEAN_MOTION_DOT":3.147e-5,"MEAN_MOTION_DDOT":0},{"OBJECT_NAME":"STARLINK-34470","OBJECT_ID":"2025-142H","EPOCH":"2026-03-19T19:52:26.939712","MEAN_MOTION":14.99323906,"ECCENTRICITY":0.0007463,"INCLINATION":70.0016,"RA_OF_ASC_NODE":288.697,"ARG_OF_PERICENTER":289.3352,"MEAN_ANOMALY":70.7,"EPHEMERIS_TYPE":0,"CLASSIFICATION_TYPE":"U","NORAD_CAT_ID":64703,"ELEMENT_SET_NO":999,"REV_AT_EPOCH":4098,"BSTAR":0.025355,"MEAN_MOTION_DOT":0.00325218,"MEAN_MOTION_DDOT":0},{"OBJECT_NAME":"STARLINK-34405","OBJECT_ID":"2025-142J","EPOCH":"2026-03-19T20:17:03.397344","MEAN_MOTION":14.98340085,"ECCENTRICITY":0.0002807,"INCLINATION":70.0001,"RA_OF_ASC_NODE":288.7854,"ARG_OF_PERICENTER":264.3552,"MEAN_ANOMALY":95.7287,"EPHEMERIS_TYPE":0,"CLASSIFICATION_TYPE":"U","NORAD_CAT_ID":64704,"ELEMENT_SET_NO":999,"REV_AT_EPOCH":4101,"BSTAR":0.00040518,"MEAN_MOTION_DOT":4.746e-5,"MEAN_MOTION_DDOT":0},{"OBJECT_NAME":"STARLINK-34406","OBJECT_ID":"2025-142K","EPOCH":"2026-03-19T20:52:53.016384","MEAN_MOTION":14.98343941,"ECCENTRICITY":0.0002895,"INCLINATION":69.9998,"RA_OF_ASC_NODE":288.8708,"ARG_OF_PERICENTER":267.3064,"MEAN_ANOMALY":92.7764,"EPHEMERIS_TYPE":0,"CLASSIFICATION_TYPE":"U","NORAD_CAT_ID":64705,"ELEMENT_SET_NO":999,"REV_AT_EPOCH":4112,"BSTAR":0.00041512,"MEAN_MOTION_DOT":4.865e-5,"MEAN_MOTION_DDOT":0},{"OBJECT_NAME":"STARLINK-34559","OBJECT_ID":"2025-142L","EPOCH":"2026-03-19T20:16:49.219104","MEAN_MOTION":14.98343391,"ECCENTRICITY":0.0002622,"INCLINATION":69.9998,"RA_OF_ASC_NODE":288.7834,"ARG_OF_PERICENTER":271.225,"MEAN_ANOMALY":88.8609,"EPHEMERIS_TYPE":0,"CLASSIFICATION_TYPE":"U","NORAD_CAT_ID":64706,"ELEMENT_SET_NO":999,"REV_AT_EPOCH":4101,"BSTAR":0.00040283,"MEAN_MOTION_DOT":4.718e-5,"MEAN_MOTION_DDOT":0}]
