STARLINK-34565          
1 64686U 25139Y   26078.29847281  .00015281  00000+0  52699-3 0  9994
2 64686  53.1575  82.5109 0001159  67.2287 292.8836 15.30200115 41754
STARLINK-34554          
1 64687U 25139Z   26078.27525704  .00012466  00000+0  43227-3 0  9995
2 64687  53.1621  82.3718 0001456  88.3761 271.7407 15.30202722 41758
STARLINK-34262          
1 64688U 25139AA  26078.28475270  .00017290  00000+0  59444-3 0  9997
2 64688  53.1586  82.4280 0001040 106.0273 254.0842 15.30204067 41817
STARLINK-34538          
1 64689U 25139AB  26078.29213864  .00002545  00000+0  98021-4 0  9990
2 64689  53.1577  82.4747 0001086  87.7851 272.3274 15.30202428 41757
STARLINK-34250          
1 64690U 25139AC  26078.29530455  .00016546  00000+0  56973-3 0  9995
2 64690  53.1573  82.4926 0001528  78.6709 281.4463 15.30187986 41758
STARLINK-34497          
1 64696U 25142A   26078.84934360 -.00000270  00000+0 -14813-4 0  9996
2 64696  70.0009 288.8011 0001808 265.0124  95.0829 14.98332300 41162
STARLINK-34584          
1 64697U 25142B   26078.83335647 -.00008438  00000+0 -70017-3 0  9990
2 64697  69.9992 288.7358 0002287 272.9573  91.8081 14.98333946  5803
STARLINK-34535          
1 64698U 25142C   26078.81164515  .00004193  00000+0  35886-3 0  9990
2 64698  69.9998 289.0414 0002972 268.2210  91.8609 14.98343116 40988
STARLINK-34600          
1 64699U 25142D   26078.87424368  .00004560  00000+0  38973-3 0  9990
2 64699  69.9999 288.8512 0002511 266.4862  93.6010 14.98329587 41004
STARLINK-34560          
1 64700U 25142E   26078.81999397  .00004420  00000+0  37784-3 0  9990
2 64700  69.9993 289.0665 0002971 270.9295  89.1523 14.98343011 40953
STARLINK-34576          
1 64701U 25142F   26078.83682612  .00004075  00000+0  34904-3 0  9999
2 64701  69.9992 288.7230 0002623 269.7049  90.3810 14.98338601 40990
STARLINK-34322          
1 64702U 25142G   26078.84100346  .00003147  00000+0  27142-3 0  9995
2 64702  70.0003 288.7358 0002433 268.9928  91.0952 14.98336107 41168
STARLINK-34470          
1 64703U 25142H   26078.82808958  .00325218  00000+0  25355-1 0  9996
2 64703  70.0016 288.6970 0007463 289.3352  70.7000 14.99323906 40989
STARLINK-34405          
1 64704U 25142J   26078.84517821  .00004746  00000+0  40518-3 0  9995
2 64704  70.0001 288.7854 0002807 264.3552  95.7287 14.98340085 41013
STARLINK-34406          
1 64705U 25142K   26078.87005806  .00004865  00000+0  41512-3 0  9991
2 64705  69.9998 288.8708 0002895 267.3064  92.7764 14.98343941 41126
STARLINK-34559          
1 64706U 25142L   26078.84501411  .00004718  00000+0  40283-3 0  9993
2 64706  69.9998 288.7834 0002622 271.2250  88.8609 14.98343391 41016
